[{"OBJECT_NAME":"STARLINK-37081","OBJECT_ID":"2026-053Y","EPOCH":"2026-04-06T05:09:47.652768","MEAN_MOTION":15.75177296,"ECCENTRICITY":0.00011387,"INCLINATION":97.2849,"RA_OF_ASC_NODE":331.862,"ARG_OF_PERICENTER":67.5963,"MEAN_ANOMALY":292.5423,"EPHEMERIS_TYPE":0,"CLASSIFICATION_TYPE":"U","NORAD_CAT_ID":68229,"ELEMENT_SET_NO":999,"REV_AT_EPOCH":440,"BSTAR":0.00032593313,"MEAN_MOTION_DOT":0.00048736,"MEAN_MOTION_DDOT":0},{"OBJECT_NAME":"STARLINK-37100","OBJECT_ID":"2026-053Z","EPOCH":"2026-04-06T06:04:24.460896","MEAN_MOTION":15.80824449,"ECCENTRICITY":0.00016154,"INCLINATION":97.2848,"RA_OF_ASC_NODE":331.9631,"ARG_OF_PERICENTER":102.5735,"MEAN_ANOMALY":257.5714,"EPHEMERIS_TYPE":0,"CLASSIFICATION_TYPE":"U","NORAD_CAT_ID":68230,"ELEMENT_SET_NO":999,"REV_AT_EPOCH":441,"BSTAR":0.00053054969,"MEAN_MOTION_DOT":0.00102729,"MEAN_MOTION_DDOT":0},{"OBJECT_NAME":"STARLINK-37104","OBJECT_ID":"2026-053AA","EPOCH":"2026-04-06T06:03:19.496736","MEAN_MOTION":15.80825955,"ECCENTRICITY":0.0001369,"INCLINATION":97.285,"RA_OF_ASC_NODE":331.9637,"ARG_OF_PERICENTER":51.7623,"MEAN_ANOMALY":308.3769,"EPHEMERIS_TYPE":0,"CLASSIFICATION_TYPE":"U","NORAD_CAT_ID":68231,"ELEMENT_SET_NO":999,"REV_AT_EPOCH":441,"BSTAR":0.00054714703,"MEAN_MOTION_DOT":0.00105993,"MEAN_MOTION_DDOT":0},{"OBJECT_NAME":"STARLINK-37027","OBJECT_ID":"2026-054A","EPOCH":"2026-04-06T05:17:16.871424","MEAN_MOTION":15.75228381,"ECCENTRICITY":0.00011741,"INCLINATION":53.1594,"RA_OF_ASC_NODE":175.0271,"ARG_OF_PERICENTER":115.9238,"MEAN_ANOMALY":244.1903,"EPHEMERIS_TYPE":0,"CLASSIFICATION_TYPE":"U","NORAD_CAT_ID":68232,"ELEMENT_SET_NO":999,"REV_AT_EPOCH":312,"BSTAR":0.00090146649,"MEAN_MOTION_DOT":0.00139784,"MEAN_MOTION_DDOT":0},{"OBJECT_NAME":"STARLINK-37132","OBJECT_ID":"2026-054B","EPOCH":"2026-04-06T04:36:17.435808","MEAN_MOTION":15.80909921,"ECCENTRICITY":0.00022196,"INCLINATION":53.1576,"RA_OF_ASC_NODE":174.8373,"ARG_OF_PERICENTER":41.3819,"MEAN_ANOMALY":318.7372,"EPHEMERIS_TYPE":0,"CLASSIFICATION_TYPE":"U","NORAD_CAT_ID":68233,"ELEMENT_SET_NO":999,"REV_AT_EPOCH":312,"BSTAR":0.0014471443,"MEAN_MOTION_DOT":0.00295413,"MEAN_MOTION_DDOT":0},{"OBJECT_NAME":"STARLINK-37101","OBJECT_ID":"2026-054C","EPOCH":"2026-04-06T05:04:41.026944","MEAN_MOTION":15.7525947,"ECCENTRICITY":0.00011309,"INCLINATION":53.1585,"RA_OF_ASC_NODE":174.9682,"ARG_OF_PERICENTER":81.8761,"MEAN_ANOMALY":278.2388,"EPHEMERIS_TYPE":0,"CLASSIFICATION_TYPE":"U","NORAD_CAT_ID":68234,"ELEMENT_SET_NO":999,"REV_AT_EPOCH":312,"BSTAR":0.0011129775,"MEAN_MOTION_DOT":0.00173668,"MEAN_MOTION_DDOT":0},{"OBJECT_NAME":"STARLINK-36963","OBJECT_ID":"2026-054D","EPOCH":"2026-04-06T05:11:13.260480","MEAN_MOTION":15.75256121,"ECCENTRICITY":0.00015476,"INCLINATION":53.1594,"RA_OF_ASC_NODE":174.9985,"ARG_OF_PERICENTER":66.8348,"MEAN_ANOMALY":293.2835,"EPHEMERIS_TYPE":0,"CLASSIFICATION_TYPE":"U","NORAD_CAT_ID":68235,"ELEMENT_SET_NO":999,"REV_AT_EPOCH":312,"BSTAR":0.0012347924,"MEAN_MOTION_DOT":0.00193168,"MEAN_MOTION_DDOT":0},{"OBJECT_NAME":"STARLINK-37127","OBJECT_ID":"2026-054E","EPOCH":"2026-04-06T05:24:17.401824","MEAN_MOTION":15.75228411,"ECCENTRICITY":0.00011429,"INCLINATION":53.1588,"RA_OF_ASC_NODE":175.0589,"ARG_OF_PERICENTER":69.7805,"MEAN_ANOMALY":290.3338,"EPHEMERIS_TYPE":0,"CLASSIFICATION_TYPE":"U","NORAD_CAT_ID":68236,"ELEMENT_SET_NO":999,"REV_AT_EPOCH":312,"BSTAR":0.0008260934,"MEAN_MOTION_DOT":0.00127861,"MEAN_MOTION_DDOT":0},{"OBJECT_NAME":"STARLINK-37095","OBJECT_ID":"2026-054F","EPOCH":"2026-04-06T05:17:45.297024","MEAN_MOTION":15.75259457,"ECCENTRICITY":0.00015832,"INCLINATION":53.1594,"RA_OF_ASC_NODE":175.0287,"ARG_OF_PERICENTER":63.3538,"MEAN_ANOMALY":296.7644,"EPHEMERIS_TYPE":0,"CLASSIFICATION_TYPE":"U","NORAD_CAT_ID":68237,"ELEMENT_SET_NO":999,"REV_AT_EPOCH":312,"BSTAR":0.0010616131,"MEAN_MOTION_DOT":0.00165462,"MEAN_MOTION_DDOT":0},{"OBJECT_NAME":"STARLINK-37097","OBJECT_ID":"2026-054G","EPOCH":"2026-04-05T16:22:35.932512","MEAN_MOTION":15.80996188,"ECCENTRICITY":0.00014235,"INCLINATION":53.1577,"RA_OF_ASC_NODE":177.346,"ARG_OF_PERICENTER":45.8658,"MEAN_ANOMALY":314.2482,"EPHEMERIS_TYPE":0,"CLASSIFICATION_TYPE":"U","NORAD_CAT_ID":68238,"ELEMENT_SET_NO":999,"REV_AT_EPOCH":304,"BSTAR":0.0010843898,"MEAN_MOTION_DOT":0.00220115,"MEAN_MOTION_DDOT":0},{"OBJECT_NAME":"STARLINK-37096","OBJECT_ID":"2026-054H","EPOCH":"2026-04-06T06:00:02.000160","MEAN_MOTION":15.75223307,"ECCENTRICITY":0.00013295,"INCLINATION":53.1589,"RA_OF_ASC_NODE":174.5618,"ARG_OF_PERICENTER":89.2996,"MEAN_ANOMALY":233.7802,"EPHEMERIS_TYPE":0,"CLASSIFICATION_TYPE":"U","NORAD_CAT_ID":68239,"ELEMENT_SET_NO":999,"REV_AT_EPOCH":434,"BSTAR":0.00016913638,"MEAN_MOTION_DOT":0.00025347,"MEAN_MOTION_DDOT":0},{"OBJECT_NAME":"STARLINK-37092","OBJECT_ID":"2026-054J","EPOCH":"2026-04-06T06:00:02.000160","MEAN_MOTION":15.75157688,"ECCENTRICITY":0.00011573,"INCLINATION":53.1577,"RA_OF_ASC_NODE":174.6672,"ARG_OF_PERICENTER":95.4226,"MEAN_ANOMALY":176.1843,"EPHEMERIS_TYPE":0,"CLASSIFICATION_TYPE":"U","NORAD_CAT_ID":68240,"ELEMENT_SET_NO":999,"REV_AT_EPOCH":434,"BSTAR":0.0011045427,"MEAN_MOTION_DOT":0.00171539,"MEAN_MOTION_DDOT":0},{"OBJECT_NAME":"STARLINK-37094","OBJECT_ID":"2026-054K","EPOCH":"2026-04-06T05:58:41.153952","MEAN_MOTION":15.81037036,"ECCENTRICITY":6.152e-5,"INCLINATION":53.1576,"RA_OF_ASC_NODE":174.4796,"ARG_OF_PERICENTER":13.0174,"MEAN_ANOMALY":347.0865,"EPHEMERIS_TYPE":0,"CLASSIFICATION_TYPE":"U","NORAD_CAT_ID":68241,"ELEMENT_SET_NO":999,"REV_AT_EPOCH":313,"BSTAR":0.0018382454,"MEAN_MOTION_DOT":0.00381498,"MEAN_MOTION_DDOT":0},{"OBJECT_NAME":"STARLINK-36356","OBJECT_ID":"2026-054L","EPOCH":"2026-04-06T04:57:40.535424","MEAN_MOTION":15.75281823,"ECCENTRICITY":0.00011473,"INCLINATION":53.158,"RA_OF_ASC_NODE":174.9351,"ARG_OF_PERICENTER":85.629,"MEAN_ANOMALY":274.4862,"EPHEMERIS_TYPE":0,"CLASSIFICATION_TYPE":"U","NORAD_CAT_ID":68242,"ELEMENT_SET_NO":999,"REV_AT_EPOCH":312,"BSTAR":0.001012651,"MEAN_MOTION_DOT":0.0015781,"MEAN_MOTION_DDOT":0},{"OBJECT_NAME":"STARLINK-36345","OBJECT_ID":"2026-054M","EPOCH":"2026-04-06T05:10:44.816736","MEAN_MOTION":15.75246834,"ECCENTRICITY":8.561e-5,"INCLINATION":53.1594,"RA_OF_ASC_NODE":174.9958,"ARG_OF_PERICENTER":108.6282,"MEAN_ANOMALY":251.4832,"EPHEMERIS_TYPE":0,"CLASSIFICATION_TYPE":"U","NORAD_CAT_ID":68243,"ELEMENT_SET_NO":999,"REV_AT_EPOCH":312,"BSTAR":0.0011330369,"MEAN_MOTION_DOT":0.00176778,"MEAN_MOTION_DDOT":0},{"OBJECT_NAME":"STARLINK-36310","OBJECT_ID":"2026-054N","EPOCH":"2026-04-06T05:54:21.861504","MEAN_MOTION":15.80950363,"ECCENTRICITY":0.00010902,"INCLINATION":53.158,"RA_OF_ASC_NODE":174.4596,"ARG_OF_PERICENTER":118.658,"MEAN_ANOMALY":241.4553,"EPHEMERIS_TYPE":0,"CLASSIFICATION_TYPE":"U","NORAD_CAT_ID":68244,"ELEMENT_SET_NO":999,"REV_AT_EPOCH":313,"BSTAR":0.0016835711,"MEAN_MOTION_DOT":0.00346503,"MEAN_MOTION_DDOT":0}]
