STARLINK-37081          
1 68229U 26053Y   26096.21513487  .00048736  00000+0  32593-3 0  9999
2 68229  97.2849 331.8620 0001138  67.5963 292.5423 15.75177296  4405
STARLINK-37100          
1 68230U 26053Z   26096.25306089  .00102729  00000+0  53055-3 0  9992
2 68230  97.2848 331.9631 0001615 102.5735 257.5714 15.80824449  4416
STARLINK-37104          
1 68231U 26053AA  26096.25230899  .00105993  00000+0  54715-3 0  9998
2 68231  97.2850 331.9637 0001369  51.7623 308.3769 15.80825955  4411
STARLINK-37027          
1 68232U 26054A   26096.22033416  .00139784  00000+0  90147-3 0  9997
2 68232  53.1594 175.0271 0001174 115.9238 244.1903 15.75228381  3126
STARLINK-37132          
1 68233U 26054B   26096.19186847  .00295413  00000+0  14471-2 0  9998
2 68233  53.1576 174.8373 0002219  41.3819 318.7372 15.80909921  3125
STARLINK-37101          
1 68234U 26054C   26096.21158596  .00173668  00000+0  11130-2 0  9998
2 68234  53.1585 174.9682 0001130  81.8761 278.2388 15.75259470  3124
STARLINK-36963          
1 68235U 26054D   26096.21612570  .00193168  00000+0  12348-2 0  9995
2 68235  53.1594 174.9985 0001547  66.8348 293.2835 15.75256121  3121
STARLINK-37127          
1 68236U 26054E   26096.22520141  .00127861  00000+0  82609-3 0  9994
2 68236  53.1588 175.0589 0001142  69.7805 290.3338 15.75228411  3125
STARLINK-37095          
1 68237U 26054F   26096.22066316  .00165462  00000+0  10616-2 0  9991
2 68237  53.1594 175.0287 0001583  63.3538 296.7644 15.75259457  3124
STARLINK-37097          
1 68238U 26054G   26095.68236033  .00220115  00000+0  10844-2 0  9996
2 68238  53.1577 177.3460 0001423  45.8658 314.2482 15.80996188  3047
STARLINK-37096          
1 68239U 26054H   26096.25002315  .00025347  00000+0  16914-3 0  9990
2 68239  53.1589 174.5618 0001329  89.2996 233.7802 15.75223307  4342
STARLINK-37092          
1 68240U 26054J   26096.25002315  .00171539  00000+0  11045-2 0  9996
2 68240  53.1577 174.6672 0001157  95.4226 176.1843 15.75157688  4349
STARLINK-37094          
1 68241U 26054K   26096.24908743  .00381498  00000+0  18382-2 0  9994
2 68241  53.1576 174.4796 0000615  13.0174 347.0865 15.81037036  3130
STARLINK-36356          
1 68242U 26054L   26096.20671916  .00157810  00000+0  10127-2 0  9998
2 68242  53.1580 174.9351 0001147  85.6290 274.4862 15.75281823  3120
STARLINK-36345          
1 68243U 26054M   26096.21579649  .00176778  00000+0  11330-2 0  9991
2 68243  53.1594 174.9958 0000856 108.6282 251.4832 15.75246834  3127
STARLINK-36310          
1 68244U 26054N   26096.24608636  .00346503  00000+0  16836-2 0  9995
2 68244  53.1580 174.4596 0001090 118.6580 241.4553 15.80950363  3134
